58892,STARLINK-31254,2024,94.06,-1.0,+,53.16,Active,0,LEO,USA,USA,Unknown,Unknown,Unknown,1 58892U 24020S   25250.97677358  .00020238  00000+0  67812-3 0  9997,2 58892  53.1581  91.3528 0000386  55.2708 304.8330 15.30930924 90094,15.30930924,3.86e-05,LEO
58893,STARLINK-31255,2024,94.11,-1.0,+,53.16,Active,0,LEO,USA,USA,Unknown,Unknown,Unknown,1 58893U 24020T   25250.96289628  .00000051  00000+0  13865-4 0  9997,2 58893  53.1607  91.2492 0001061  72.4109 287.7008 15.30174462 90098,15.30174462,0.0001061,LEO
58894,STARLINK-31243,2024,94.1,-1.0,+,53.16,Active,0,LEO,USA,USA,Unknown,Unknown,Unknown,1 58894U 24020U   25250.83543112 -.00001223  00000+0 -29186-4 0  9992,2 58894  53.1605  91.8751 0001112  77.6425 282.4701 15.30186514 90077,15.30186514,0.0001112,LEO
58895,STARLINK-31218,2024,94.1,-1.0,+,53.16,Active,0,LEO,USA,USA,Unknown,Unknown,Unknown,1 58895U 24020V   25250.96922592 -.00000137  00000+0  75013-5 0  9993,2 58895  53.1606  91.2883 0001173  77.2562 282.8570 15.30182676 90099,15.30182676,0.0001173,LEO
58896,STARLINK-31221,2024,91.64,-1.0,P,53.14,Active,0,LEO,USA,USA,Unknown,Unknown,Unknown,1 58896U 24020W   25251.25002315  .00450257  00000+0  31897-2 0  9999,2 58896  53.1382  71.8807 0010927 276.9739 252.4051 15.72042530  5893,15.7204253,0.0010927,LEO
58897,STARLINK-31190,2024,94.11,-1.0,+,53.16,Active,0,LEO,USA,USA,Unknown,Unknown,Unknown,1 58897U 24020X   25250.84598102 -.00001420  00000+0 -35854-4 0  9993,2 58897  53.1594  91.9388 0000955  57.5301 302.5792 15.30190740 90078,15.3019074,9.55e-05,LEO
58931,STARLINK-31317,2024,94.11,-1.0,+,53.16,Active,0,LEO,USA,USA,Unknown,Unknown,Unknown,1 58931U 24027A   25251.22462068 -.00002845  00000+0 -84033-4 0  9998,2 58931  53.1597  77.0452 0001112  93.6363 266.4765 15.30182117 89235,15.30182117,0.0001112,LEO
58932,STARLINK-31378,2024,94.11,-1.0,+,53.16,Active,0,LEO,USA,USA,Unknown,Unknown,Unknown,1 58932U 24027B   25251.22779368 -.00001224  00000+0 -29231-4 0  9992,2 58932  53.1612  77.0629 0001044  93.7596 266.3524 15.30176649 89395,15.30176649,0.0001044,LEO
58933,STARLINK-31350,2024,94.11,-1.0,+,53.16,Active,0,LEO,USA,USA,Unknown,Unknown,Unknown,1 58933U 24027C   25251.21829390 -.00000971  00000+0 -20673-4 0  9992,2 58933  53.1610  77.0036 0001171  91.5177 268.5957 15.30179844 89392,15.30179844,0.0001171,LEO
58934,STARLINK-31337,2024,94.11,-1.0,+,53.16,Active,0,LEO,USA,USA,Unknown,Unknown,Unknown,1 58934U 24027D   25251.21512910 -.00000834  00000+0 -16039-4 0  9999,2 58934  53.1607  76.9838 0001163  78.2773 281.8358 15.30183372 89396,15.30183372,0.0001163,LEO
58935,STARLINK-31362,2024,94.11,-1.0,+,53.16,Active,0,LEO,USA,USA,Unknown,Unknown,Unknown,1 58935U 24027E   25250.80540226  .00000121  00000+0  16197-4 0  9997,2 58935  53.1587  79.4063 0000686  93.8411 266.2668 15.30189242 89329,15.30189242,6.86e-05,LEO
58936,STARLINK-31383,2024,94.11,-1.0,+,53.16,Active,0,LEO,USA,USA,Unknown,Unknown,Unknown,1 58936U 24027F   25250.80434766  .00001124  00000+0  50069-4 0  9999,2 58936  53.1606  79.4014 0000972  84.1775 275.9336 15.30190736 89321,15.30190736,9.72e-05,LEO
58937,STARLINK-31390,2024,94.1,-1.0,+,53.16,Active,0,LEO,USA,USA,Unknown,Unknown,Unknown,1 58937U 24027G   25251.25733497 -.00000018  00000+0  11509-4 0  9991,2 58937  53.1622  77.2520 0001145  75.1854 284.9274 15.30186213 89392,15.30186213,0.0001145,LEO
58938,STARLINK-31377,2024,94.1,-1.0,+,53.16,Active,0,LEO,USA,USA,Unknown,Unknown,Unknown,1 58938U 24027H   25250.80329096 -.00001798  00000+0 -48595-4 0  9990,2 58938  53.1594  79.3899 0001183  82.6544 277.4591 15.30195664 89326,15.30195664,0.0001183,LEO
58939,STARLINK-31372,2024,94.1,-1.0,+,53.16,Active,0,LEO,USA,USA,Unknown,Unknown,Unknown,1 58939U 24027J   25251.25417084  .00007444  00000+0  26341-3 0  9992,2 58939  53.1595  77.2293 0001170  84.2497 275.8637 15.30176119 89398,15.30176119,0.000117,LEO
58940,STARLINK-31371,2024,94.11,-1.0,+,53.16,Active,0,LEO,USA,USA,Unknown,Unknown,Unknown,1 58940U 24027K   25251.25310666 -.00002432  00000+0 -70013-4 0  9992,2 58940  53.1614  77.2226 0001216  91.7903 268.3237 15.30193140 89390,15.3019314,0.0001216,LEO
