[{"OBJECT_NAME":"STARLINK-31254","OBJECT_ID":"2024-020S","EPOCH":"2025-09-07T23:26:33.237312","MEAN_MOTION":15.30930924,"ECCENTRICITY":3.862e-5,"INCLINATION":53.1581,"RA_OF_ASC_NODE":91.3528,"ARG_OF_PERICENTER":55.2708,"MEAN_ANOMALY":304.833,"EPHEMERIS_TYPE":0,"CLASSIFICATION_TYPE":"U","NORAD_CAT_ID":58892,"ELEMENT_SET_NO":999,"REV_AT_EPOCH":9009,"BSTAR":0.00067811602,"MEAN_MOTION_DOT":0.00020238,"MEAN_MOTION_DDOT":0},{"OBJECT_NAME":"STARLINK-31255","OBJECT_ID":"2024-020T","EPOCH":"2025-09-07T23:06:34.238592","MEAN_MOTION":15.30174462,"ECCENTRICITY":0.00010616,"INCLINATION":53.1607,"RA_OF_ASC_NODE":91.2492,"ARG_OF_PERICENTER":72.4109,"MEAN_ANOMALY":287.7008,"EPHEMERIS_TYPE":0,"CLASSIFICATION_TYPE":"U","NORAD_CAT_ID":58893,"ELEMENT_SET_NO":999,"REV_AT_EPOCH":9009,"BSTAR":1.3865424e-5,"MEAN_MOTION_DOT":5.1e-7,"MEAN_MOTION_DDOT":0},{"OBJECT_NAME":"STARLINK-31243","OBJECT_ID":"2024-020U","EPOCH":"2025-09-07T20:03:01.248768","MEAN_MOTION":15.30186514,"ECCENTRICITY":0.00011127,"INCLINATION":53.1605,"RA_OF_ASC_NODE":91.8751,"ARG_OF_PERICENTER":77.6425,"MEAN_ANOMALY":282.4701,"EPHEMERIS_TYPE":0,"CLASSIFICATION_TYPE":"U","NORAD_CAT_ID":58894,"ELEMENT_SET_NO":999,"REV_AT_EPOCH":9007,"BSTAR":-2.9185613e-5,"MEAN_MOTION_DOT":-1.223e-5,"MEAN_MOTION_DDOT":0},{"OBJECT_NAME":"STARLINK-31218","OBJECT_ID":"2024-020V","EPOCH":"2025-09-07T23:15:41.119488","MEAN_MOTION":15.30182676,"ECCENTRICITY":0.00011738,"INCLINATION":53.1606,"RA_OF_ASC_NODE":91.2883,"ARG_OF_PERICENTER":77.2562,"MEAN_ANOMALY":282.857,"EPHEMERIS_TYPE":0,"CLASSIFICATION_TYPE":"U","NORAD_CAT_ID":58895,"ELEMENT_SET_NO":999,"REV_AT_EPOCH":9009,"BSTAR":7.50133e-6,"MEAN_MOTION_DOT":-1.37e-6,"MEAN_MOTION_DDOT":0},{"OBJECT_NAME":"STARLINK-31221","OBJECT_ID":"2024-020W","EPOCH":"2025-09-08T06:00:02.000160","MEAN_MOTION":15.7204253,"ECCENTRICITY":0.00109274,"INCLINATION":53.1382,"RA_OF_ASC_NODE":71.8807,"ARG_OF_PERICENTER":276.9739,"MEAN_ANOMALY":252.4051,"EPHEMERIS_TYPE":0,"CLASSIFICATION_TYPE":"U","NORAD_CAT_ID":58896,"ELEMENT_SET_NO":999,"REV_AT_EPOCH":589,"BSTAR":0.0031897447,"MEAN_MOTION_DOT":0.00450257,"MEAN_MOTION_DDOT":0},{"OBJECT_NAME":"STARLINK-31190","OBJECT_ID":"2024-020X","EPOCH":"2025-09-07T20:18:12.760128","MEAN_MOTION":15.3019074,"ECCENTRICITY":9.552e-5,"INCLINATION":53.1594,"RA_OF_ASC_NODE":91.9388,"ARG_OF_PERICENTER":57.5301,"MEAN_ANOMALY":302.5792,"EPHEMERIS_TYPE":0,"CLASSIFICATION_TYPE":"U","NORAD_CAT_ID":58897,"ELEMENT_SET_NO":999,"REV_AT_EPOCH":9007,"BSTAR":-3.5853658e-5,"MEAN_MOTION_DOT":-1.42e-5,"MEAN_MOTION_DDOT":0},{"OBJECT_NAME":"STARLINK-31317","OBJECT_ID":"2024-027A","EPOCH":"2025-09-08T05:23:27.226752","MEAN_MOTION":15.30182117,"ECCENTRICITY":0.00011121,"INCLINATION":53.1597,"RA_OF_ASC_NODE":77.0452,"ARG_OF_PERICENTER":93.6363,"MEAN_ANOMALY":266.4765,"EPHEMERIS_TYPE":0,"CLASSIFICATION_TYPE":"U","NORAD_CAT_ID":58931,"ELEMENT_SET_NO":999,"REV_AT_EPOCH":8923,"BSTAR":-8.4032662e-5,"MEAN_MOTION_DOT":-2.845e-5,"MEAN_MOTION_DDOT":0},{"OBJECT_NAME":"STARLINK-31378","OBJECT_ID":"2024-027B","EPOCH":"2025-09-08T05:28:01.373952","MEAN_MOTION":15.30176649,"ECCENTRICITY":0.00010447,"INCLINATION":53.1612,"RA_OF_ASC_NODE":77.0629,"ARG_OF_PERICENTER":93.7596,"MEAN_ANOMALY":266.3524,"EPHEMERIS_TYPE":0,"CLASSIFICATION_TYPE":"U","NORAD_CAT_ID":58932,"ELEMENT_SET_NO":999,"REV_AT_EPOCH":8939,"BSTAR":-2.9231137e-5,"MEAN_MOTION_DOT":-1.224e-5,"MEAN_MOTION_DDOT":0},{"OBJECT_NAME":"STARLINK-31350","OBJECT_ID":"2024-027C","EPOCH":"2025-09-08T05:14:20.592960","MEAN_MOTION":15.30179844,"ECCENTRICITY":0.00011711,"INCLINATION":53.161,"RA_OF_ASC_NODE":77.0036,"ARG_OF_PERICENTER":91.5177,"MEAN_ANOMALY":268.5957,"EPHEMERIS_TYPE":0,"CLASSIFICATION_TYPE":"U","NORAD_CAT_ID":58933,"ELEMENT_SET_NO":999,"REV_AT_EPOCH":8939,"BSTAR":-2.0672715e-5,"MEAN_MOTION_DOT":-9.71e-6,"MEAN_MOTION_DDOT":0},{"OBJECT_NAME":"STARLINK-31337","OBJECT_ID":"2024-027D","EPOCH":"2025-09-08T05:09:47.154240","MEAN_MOTION":15.30183372,"ECCENTRICITY":0.00011634,"INCLINATION":53.1607,"RA_OF_ASC_NODE":76.9838,"ARG_OF_PERICENTER":78.2773,"MEAN_ANOMALY":281.8358,"EPHEMERIS_TYPE":0,"CLASSIFICATION_TYPE":"U","NORAD_CAT_ID":58934,"ELEMENT_SET_NO":999,"REV_AT_EPOCH":8939,"BSTAR":-1.6039442e-5,"MEAN_MOTION_DOT":-8.34e-6,"MEAN_MOTION_DDOT":0},{"OBJECT_NAME":"STARLINK-31362","OBJECT_ID":"2024-027E","EPOCH":"2025-09-07T19:19:46.755264","MEAN_MOTION":15.30189242,"ECCENTRICITY":6.869e-5,"INCLINATION":53.1587,"RA_OF_ASC_NODE":79.4063,"ARG_OF_PERICENTER":93.8411,"MEAN_ANOMALY":266.2668,"EPHEMERIS_TYPE":0,"CLASSIFICATION_TYPE":"U","NORAD_CAT_ID":58935,"ELEMENT_SET_NO":999,"REV_AT_EPOCH":8932,"BSTAR":1.6196699e-5,"MEAN_MOTION_DOT":1.21e-6,"MEAN_MOTION_DDOT":0},{"OBJECT_NAME":"STARLINK-31383","OBJECT_ID":"2024-027F","EPOCH":"2025-09-07T19:18:15.637824","MEAN_MOTION":15.30190736,"ECCENTRICITY":9.726e-5,"INCLINATION":53.1606,"RA_OF_ASC_NODE":79.4014,"ARG_OF_PERICENTER":84.1775,"MEAN_ANOMALY":275.9336,"EPHEMERIS_TYPE":0,"CLASSIFICATION_TYPE":"U","NORAD_CAT_ID":58936,"ELEMENT_SET_NO":999,"REV_AT_EPOCH":8932,"BSTAR":5.0068732e-5,"MEAN_MOTION_DOT":1.124e-5,"MEAN_MOTION_DDOT":0},{"OBJECT_NAME":"STARLINK-31390","OBJECT_ID":"2024-027G","EPOCH":"2025-09-08T06:10:33.741408","MEAN_MOTION":15.30186213,"ECCENTRICITY":0.00011456,"INCLINATION":53.1622,"RA_OF_ASC_NODE":77.252,"ARG_OF_PERICENTER":75.1854,"MEAN_ANOMALY":284.9274,"EPHEMERIS_TYPE":0,"CLASSIFICATION_TYPE":"U","NORAD_CAT_ID":58937,"ELEMENT_SET_NO":999,"REV_AT_EPOCH":8939,"BSTAR":1.15087e-5,"MEAN_MOTION_DOT":-1.8e-7,"MEAN_MOTION_DDOT":0},{"OBJECT_NAME":"STARLINK-31377","OBJECT_ID":"2024-027H","EPOCH":"2025-09-07T19:16:44.338944","MEAN_MOTION":15.30195664,"ECCENTRICITY":0.00011839,"INCLINATION":53.1594,"RA_OF_ASC_NODE":79.3899,"ARG_OF_PERICENTER":82.6544,"MEAN_ANOMALY":277.4591,"EPHEMERIS_TYPE":0,"CLASSIFICATION_TYPE":"U","NORAD_CAT_ID":58938,"ELEMENT_SET_NO":999,"REV_AT_EPOCH":8932,"BSTAR":-4.8594566e-5,"MEAN_MOTION_DOT":-1.798e-5,"MEAN_MOTION_DDOT":0},{"OBJECT_NAME":"STARLINK-31372","OBJECT_ID":"2024-027J","EPOCH":"2025-09-08T06:06:00.360576","MEAN_MOTION":15.30176119,"ECCENTRICITY":0.00011703,"INCLINATION":53.1595,"RA_OF_ASC_NODE":77.2293,"ARG_OF_PERICENTER":84.2497,"MEAN_ANOMALY":275.8637,"EPHEMERIS_TYPE":0,"CLASSIFICATION_TYPE":"U","NORAD_CAT_ID":58939,"ELEMENT_SET_NO":999,"REV_AT_EPOCH":8939,"BSTAR":0.00026340709,"MEAN_MOTION_DOT":7.444e-5,"MEAN_MOTION_DDOT":0},{"OBJECT_NAME":"STARLINK-31371","OBJECT_ID":"2024-027K","EPOCH":"2025-09-08T06:04:28.415424","MEAN_MOTION":15.3019314,"ECCENTRICITY":0.00012167,"INCLINATION":53.1614,"RA_OF_ASC_NODE":77.2226,"ARG_OF_PERICENTER":91.7903,"MEAN_ANOMALY":268.3237,"EPHEMERIS_TYPE":0,"CLASSIFICATION_TYPE":"U","NORAD_CAT_ID":58940,"ELEMENT_SET_NO":999,"REV_AT_EPOCH":8939,"BSTAR":-7.0013072e-5,"MEAN_MOTION_DOT":-2.432e-5,"MEAN_MOTION_DDOT":0}]
